[{"OBJECT_NAME":"STARLINK-32082","OBJECT_ID":"2024-136T","EPOCH":"2026-03-09T08:13:59.873376","MEAN_MOTION":15.30194163,"ECCENTRICITY":0.00012632,"INCLINATION":53.1609,"RA_OF_ASC_NODE":77.1191,"ARG_OF_PERICENTER":95.4838,"MEAN_ANOMALY":264.6307,"EPHEMERIS_TYPE":0,"CLASSIFICATION_TYPE":"U","NORAD_CAT_ID":60346,"ELEMENT_SET_NO":999,"REV_AT_EPOCH":8961,"BSTAR":2.6209013e-5,"MEAN_MOTION_DOT":4.17e-6,"MEAN_MOTION_DDOT":0},{"OBJECT_NAME":"CZ-4B DEB","OBJECT_ID":"2006-015E","EPOCH":"2026-03-09T20:34:53.082912","MEAN_MOTION":15.19885806,"ECCENTRICITY":0.00461993,"INCLINATION":98.0565,"RA_OF_ASC_NODE":201.7753,"ARG_OF_PERICENTER":62.4887,"MEAN_ANOMALY":298.1031,"EPHEMERIS_TYPE":0,"CLASSIFICATION_TYPE":"U","NORAD_CAT_ID":29538,"ELEMENT_SET_NO":999,"REV_AT_EPOCH":5389,"BSTAR":0.0022587151,"MEAN_MOTION_DOT":0.00050103,"MEAN_MOTION_DDOT":0}]
